NORAD_CAT_ID,OBJECT_NAME,OBJECT_TYPE,EPOCH,MEAN_MOTION,ECCENTRICITY,INCLINATION,RA_OF_ASC_NODE,ARG_OF_PERICENTER,MEAN_ANOMALY,BSTAR,MEAN_MOTION_DOT,MEAN_MOTION_DDOT,TLE_LINE0,TLE_LINE1,TLE_LINE2,SEMIMAJOR_AXIS,PERIOD,APOGEE,PERIGEE,DECAYED
56479.0,STARLINK-6044,PAYLOAD,2023-06-07 17:59:00,15.69922532,0.0003493,69.9973,166.5014,262.8634,97.2165,2.2803e-05,2.53e-05,0.0,0 STARLINK-6044,1 56479U 23064AH  23158.74930795  .00002530  00000-0  22803-4 0  9998,2 56479  69.9973 166.5014 0003493 262.8634  97.2165 15.69922532  4423,6737.256,91.724,361.474,356.767,0.0
56479.0,STARLINK-6044,PAYLOAD,2023-06-08 10:48:16,15.69925955,0.0003564,69.9977,164.5295,265.1007,94.9781,5.9733e-06,5.05e-06,0.0,0 STARLINK-6044,1 56479U 23064AH  23159.45019266  .00000505  00000-0  59733-5 0  9991,2 56479  69.9977 164.5295 0003564 265.1007  94.9781 15.69925955  4885,6737.246,91.724,361.512,356.71,0.0
56479.0,STARLINK-6044,PAYLOAD,2023-06-09 09:44:33,15.69911804,0.0003251,69.9981,161.8434,256.1849,103.8985,3.549e-05,4.054e-05,0.0,0 STARLINK-6044,1 56479U 23064AH  23160.40594765  .00004054  00000-0  35490-4 0  9996,2 56479  69.9981 161.8434 0003251 256.1849 103.8985 15.69911804  5034,6737.286,91.725,361.342,356.961,0.0
56479.0,STARLINK-6044,PAYLOAD,2023-06-09 17:23:17,15.6993451,0.0005716,69.9964,160.9478,263.3459,96.7087,1.7791e-05,1.928e-05,0.0,0 STARLINK-6044,1 56479U 23064AH  23160.72451222  .00001928  00000-0  17791-4 0  9992,2 56479  69.9964 160.9478 0005716 263.3459  96.7087 15.69934510  5085,6737.221,91.724,362.937,355.235,0.0
56479.0,STARLINK-6044,PAYLOAD,2023-06-10 02:33:49,15.69928589,0.0003318,69.9982,159.8737,264.981,95.1007,1.2596e-06,-6.1e-07,0.0,0 STARLINK-6044,1 56479U 23064AH  23161.10682745 -.00000061  00000-0  12596-5 0  9998,2 56479  69.9982 159.8737 0003318 264.9810  95.1007 15.69928589  5145,6737.238,91.724,361.339,356.868,0.0
56479.0,STARLINK-6044,PAYLOAD,2023-06-10 11:44:20,15.69929956,0.0003584,69.9979,158.7981,264.8078,95.2709,1.3782e-05,1.445e-05,0.0,0 STARLINK-6044,1 56479U 23064AH  23161.48912328  .00001445  00000-0  13782-4 0  9995,2 56479  69.9979 158.7981 0003584 264.8078  95.2709 15.69929956  4856,6737.234,91.724,361.514,356.685,0.0
56479.0,STARLINK-6044,PAYLOAD,2023-06-10 23:58:22,15.69922038,0.0003651,69.9976,157.3653,273.9667,86.1111,1.9311e-06,1.9e-07,0.0,0 STARLINK-6044,1 56479U 23064AH  23161.99886604  .00000019  00000-0  19311-5 0  9999,2 56479  69.9976 157.3653 0003651 273.9667  86.1111 15.69922038  5282,6737.257,91.724,361.582,356.662,0.0
56479.0,STARLINK-6044,PAYLOAD,2023-06-11 12:12:22,15.69925431,0.0003795,69.9976,155.9319,265.4876,94.5886,8.1428e-06,7.66e-06,0.0,0 STARLINK-6044,1 56479U 23064AH  23162.50859594  .00000766  00000-0  81428-5 0  9992,2 56479  69.9976 155.9319 0003795 265.4876  94.5886 15.69925431  5015,6737.247,91.724,361.669,356.556,0.0
56479.0,STARLINK-6044,PAYLOAD,2023-06-11 16:47:35,15.70005676,0.0004652,69.9982,155.3939,261.0915,98.9754,-0.00013233,-0.00016154,0.0,0 STARLINK-6044,1 56479U 23064AH  23162.69971165 -.00016154  00000-0 -13233-3 0  9998,2 56479  69.9982 155.3939 0004652 261.0915  98.9754 15.70005676  5398,6737.018,91.719,362.017,355.749,0.0
56479.0,STARLINK-6044,PAYLOAD,2023-06-11 22:54:38,15.69925937,0.0003154,69.9974,154.6765,265.8266,94.2569,1.2166e-05,1.25e-05,0.0,0 STARLINK-6044,1 56479U 23064AH  23162.95461331  .00001250  00000-0  12166-4 0  9990,2 56479  69.9974 154.6765 0003154 265.8266  94.2569 15.69925937  5083,6737.246,91.724,361.236,356.986,0.0
56479.0,STARLINK-6044,PAYLOAD,2023-06-12 01:58:09,15.69921898,0.0003414,69.998,154.3197,263.1018,96.9789,1.1119e-05,1.124e-05,0.0,0 STARLINK-6044,1 56479U 23064AH  23163.08204871  .00001124  00000-0  11119-4 0  9996,2 56479  69.9980 154.3197 0003414 263.1018  96.9789 15.69921898  5109,6737.257,91.724,361.423,356.822,0.0
56479.0,STARLINK-6044,PAYLOAD,2023-06-12 09:36:54,15.69926565,0.0003253,69.9964,153.423,264.526,95.5565,-3.5832e-07,-2.56e-06,0.0,0 STARLINK-6044,1 56479U 23064AH  23163.40063159 -.00000256  00000-0 -35832-6 0  9991,2 56479  69.9964 153.4230 0003253 264.5260  95.5565 15.69926565  5152,6737.244,91.724,361.301,356.917,0.0
56479.0,STARLINK-6044,PAYLOAD,2023-06-13 05:29:41,15.69921761,0.0003333,69.9961,151.093,256.7284,103.354,1.2626e-05,1.305e-05,0.0,0 STARLINK-6044,1 56479U 23064AH  23164.22894862  .00001305  00000-0  12626-4 0  9993,2 56479  69.9961 151.0930 0003333 256.7284 103.3540 15.69921761  5635,6737.258,91.724,361.368,356.877,0.0
56479.0,STARLINK-6044,PAYLOAD,2023-06-13 07:01:25,15.69925889,0.0003397,69.9969,150.9139,255.3725,104.7095,2.0855e-05,2.296e-05,0.0,0 STARLINK-6044,1 56479U 23064AH  23164.29266183  .00002296  00000-0  20855-4 0  9992,2 56479  69.9969 150.9139 0003397 255.3725 104.7095 15.69925889  5294,6737.246,91.724,361.4,356.822,0.0
56479.0,STARLINK-6044,PAYLOAD,2023-06-14 05:57:43,15.69922022,0.0003224,69.9971,148.2272,252.8787,107.2056,3.7342e-06,2.36e-06,0.0,0 STARLINK-6044,1 56479U 23064AH  23165.24841846  .00000236  00000-0  37342-5 0  9995,2 56479  69.9971 148.2272 0003224 252.8787 107.2056 15.69922022  5790,6737.257,91.724,361.294,356.95,0.0
56479.0,STARLINK-6044,PAYLOAD,2023-06-14 10:32:58,15.69922606,0.0003326,69.9972,147.6925,260.9155,99.1664,2.0199e-07,-1.88e-06,0.0,0 STARLINK-6044,1 56479U 23064AH  23165.43956940 -.00000188  00000-0  20199-6 0  9998,2 56479  69.9972 147.6925 0003326 260.9155  99.1664 15.69922606  5478,6737.255,91.724,361.361,356.88,0.0
56479.0,STARLINK-6044,PAYLOAD,2023-06-15 07:57:30,15.69917673,0.0003046,69.9971,145.1831,260.8703,99.2148,-8.7258e-06,-1.261e-05,0.0,0 STARLINK-6044,1 56479U 23064AH  23166.33160796 -.00001261  00000-0 -87258-5 0  9996,2 56479  69.9971 145.1831 0003046 260.8703  99.2148 15.69917673  5963,6737.27,91.725,361.187,357.082,0.0
56479.0,STARLINK-6044,PAYLOAD,2023-06-15 11:01:01,15.69917299,0.0003078,69.997,144.8247,263.5204,96.5641,-1.1048e-05,-1.54e-05,0.0,0 STARLINK-6044,1 56479U 23064AH  23166.45904124 -.00001540  00000-0 -11048-4 0  9993,2 56479  69.9970 144.8247 0003078 263.5204  96.5641 15.69917299  5636,6737.271,91.725,361.209,357.062,0.0
56479.0,STARLINK-6044,PAYLOAD,2023-06-15 15:36:15,15.69922748,0.00035,69.9983,144.2876,263.1366,96.9432,8.6071e-06,8.22e-06,0.0,0 STARLINK-6044,1 56479U 23064AH  23166.65018447  .00000822  00000-0  86071-5 0  9998,2 56479  69.9983 144.2876 0003500 263.1366  96.9432 15.69922748  6017,6737.255,91.724,361.478,356.762,0.0
56479.0,STARLINK-6044,PAYLOAD,2023-06-16 09:57:18,15.69903475,0.0003112,69.9983,142.1369,272.7752,87.3087,-1.5533e-05,-2.078e-05,0.0,0 STARLINK-6044,1 56479U 23064AH  23167.41480200 -.00002078  00000-0 -15533-4 0  9994,2 56479  69.9983 142.1369 0003112 272.7752  87.3087 15.69903475  6134,6737.31,91.725,361.272,357.079,0.0
56479.0,STARLINK-6044,PAYLOAD,2023-06-16 16:04:18,15.69914329,0.0003675,69.9997,141.4206,264.1446,95.9331,1.751e-06,-2e-08,0.0,0 STARLINK-6044,1 56479U 23064AH  23167.66965844 -.00000002  00000-0  17510-5 0  9995,2 56479  69.9997 141.4206 0003675 264.1446  95.9331 15.69914329  6171,6737.279,91.725,361.62,356.668,0.0
56479.0,STARLINK-6044,PAYLOAD,2023-06-17 10:25:20,15.69913252,0.0003172,69.9972,139.2723,271.7885,88.2947,1.1663e-05,1.189e-05,0.0,0 STARLINK-6044,1 56479U 23064AH  23168.43426144  .00001189  00000-0  11663-4 0  9994,2 56479  69.9972 139.2723 0003172 271.7885  88.2947 15.69913252  5942,6737.282,91.725,361.284,357.01,0.0
56479.0,STARLINK-6044,PAYLOAD,2023-06-17 15:00:35,15.69920179,0.0003529,69.997,138.7356,267.4367,92.6425,1.7687e-05,1.914e-05,0.0,0 STARLINK-6044,1 56479U 23064AH  23168.62540560  .00001914  00000-0  17687-4 0  9992,2 56479  69.9970 138.7356 0003529 267.4367  92.6425 15.69920179  6328,6737.262,91.724,361.505,356.75,0.0
56479.0,STARLINK-6044,PAYLOAD,2023-06-18 04:46:20,15.69930783,0.0003574,69.9981,137.1219,268.772,91.3066,4.4793e-07,-1.59e-06,0.0,0 STARLINK-6044,1 56479U 23064AH  23169.19885248 -.00000159  00000-0  44793-6 0  9991,2 56479  69.9981 137.1219 0003574 268.7720  91.3066 15.69930783  6068,6737.232,91.724,361.505,356.689,0.0
56479.0,STARLINK-6044,PAYLOAD,2023-06-18 15:28:36,15.69918958,0.0003181,69.9955,135.8681,272.3549,87.7282,2.9063e-05,3.282e-05,0.0,0 STARLINK-6044,1 56479U 23064AH  23169.64487246  .00003282  00000-0  29063-4 0  9997,2 56479  69.9955 135.8681 0003181 272.3549  87.7282 15.69918958  6486,6737.266,91.724,361.274,356.988,0.0
56479.0,STARLINK-6044,PAYLOAD,2023-06-19 08:17:53,15.69925306,0.0003756,69.9957,133.8975,266.1375,93.9392,2.1053e-06,4e-07,0.0,0 STARLINK-6044,1 56479U 23064AH  23170.34575659  .00000040  00000-0  21053-5 0  9993,2 56479  69.9957 133.8975 0003756 266.1375  93.9392 15.69925306  6248,6737.248,91.724,361.643,356.582,0.0
56479.0,STARLINK-6044,PAYLOAD,2023-06-20 04:10:39,15.69930387,0.0003309,69.9977,131.569,265.5071,94.5747,1.0902e-05,1.099e-05,0.0,0 STARLINK-6044,1 56479U 23064AH  23171.17407046  .00001099  00000-0  10902-4 0  9994,2 56479  69.9977 131.5690 0003309 265.5071  94.5747 15.69930387  6728,6737.233,91.724,361.328,356.869,0.0
56479.0,STARLINK-6044,PAYLOAD,2023-06-20 08:45:55,15.69929007,0.0003389,69.9978,131.0316,265.9618,94.1191,9.068e-06,8.78e-06,0.0,0 STARLINK-6044,1 56479U 23064AH  23171.36522174  .00000878  00000-0  90680-5 0  9991,2 56479  69.9978 131.0316 0003389 265.9618  94.1191 15.69929007  6409,6737.237,91.724,361.385,356.819,0.0
56479.0,STARLINK-6044,PAYLOAD,2023-06-20 20:59:56,15.69927457,0.0002963,69.9969,129.598,264.1778,95.908,1.2616e-05,1.305e-05,0.0,0 STARLINK-6044,1 56479U 23064AH  23171.87495708  .00001305  00000-0  12616-4 0  9997,2 56479  69.9969 129.5980 0002963 264.1778  95.9080 15.69927457  6484,6737.242,91.724,361.103,357.11,0.0
56479.0,STARLINK-6044,PAYLOAD,2023-06-21 00:03:26,15.69925441,0.000312,69.996,129.2363,253.2119,106.8734,6.7206e-07,-1.32e-06,0.0,0 STARLINK-6044,1 56479U 23064AH  23172.00239262 -.00000132  00000-0  67206-6 0  9999,2 56479  69.9960 129.2363 0003120 253.2119 106.8734 15.69925441  6851,6737.247,91.724,361.214,357.01,0.0
